format  = 'OEF2.0'       ! file format
rectype = 'ML'           ! record type (1L/ML)
refsys  = ECLM J2000     ! default reference system
END_OF_HEADER
202930
! Equinoctial elements: a, e*sin(LP), e*cos(LP), tan(i/2)*sin(LN), tan(i/2)*cos(LN), mean long.
 EQU   2.7180925627760142E+00  -0.012405543715436   0.130800912746402   -0.009461614156550    0.038687326691134 190.5882429206100
 MJD     56881.043900596 TDT
 MAG  16.643  0.150
! Non-grav parameters: model used, actual number in use, dimension
 LSP   0  0    6
! RMS    1.65254E-08   5.90970E-08   8.21013E-08   5.34618E-08   7.57231E-08   5.34912E-06
! EIG   1.49557E-08   5.25325E-08   5.49497E-08   7.57400E-08   7.95318E-08   9.87405E-08
! WEA   0.01664  -0.25710  -0.36090  -0.06138  -0.06735  -0.89167
 COV   2.730886535931439E-16  3.030604712363711E-16 -2.536820128384864E-16
 COV  -6.118745641750809E-18  1.031620670444535E-17 -9.277405796540769E-15
 COV   3.492450221803863E-15  8.628565680604580E-17  1.965318397876692E-17
 COV   6.358913914029907E-17  1.013433136090653E-13  6.740622152528498E-15
 COV   7.201477503682949E-17  1.202268826634156E-16  6.727935609678323E-14
 COV   2.858163106047966E-15  2.665454347548525E-16  2.402787063077729E-14
 COV   5.733982839152783E-15  1.249883911724633E-14  2.861309291013933E-11
 NOR   4.406540043091460E+15 -4.655795339808152E+14  1.446552203703641E+14
 NOR  -1.311460799366051E+13 -1.119027427314892E+13  2.753540295961277E+12
 NOR   3.688464218565896E+14 -7.898484689847156E+12  8.855137136741273E+12
 NOR  -3.467237702827074E+11 -1.446069478818190E+12  1.568733031703136E+14
 NOR  -8.738512824960016E+11 -2.784695010057097E+12 -2.920358459990873E+11
 NOR   3.540053889810471E+14 -1.580619866904535E+13 -3.239329251274200E+11
 NOR   1.753449541508848E+14 -5.917379057561521E+10  4.194814565999519E+10
